{
  "links" : {
    "next" : "https://api.nasa.gov/neo/rest/v1/feed?start_date=2016-08-16&end_date=2016-08-16&detailed=true&api_key=t0TVs3DtDT2H8Oy2Zy8m2eVrNsAVKAexjcZXUckd",
    "prev" : "https://api.nasa.gov/neo/rest/v1/feed?start_date=2016-08-14&end_date=2016-08-14&detailed=true&api_key=t0TVs3DtDT2H8Oy2Zy8m2eVrNsAVKAexjcZXUckd",
    "self" : "https://api.nasa.gov/neo/rest/v1/feed?start_date=2016-08-15&end_date=2016-08-15&detailed=true&api_key=t0TVs3DtDT2H8Oy2Zy8m2eVrNsAVKAexjcZXUckd"
  },
  "element_count" : 6,
  "near_earth_objects" : {
    "2016-08-15" : [ {
      "links" : {
        "self" : "https://api.nasa.gov/neo/rest/v1/neo/3475236?api_key=t0TVs3DtDT2H8Oy2Zy8m2eVrNsAVKAexjcZXUckd"
      },
      "neo_reference_id" : "3475236",
      "name" : "(2009 VW)",
      "nasa_jpl_url" : "http://ssd.jpl.nasa.gov/sbdb.cgi?sstr=3475236",
      "absolute_magnitude_h" : 21.6,
      "estimated_diameter" : {
        "kilometers" : {
          "estimated_diameter_min" : 0.1272198785,
          "estimated_diameter_max" : 0.2844722965
        },
        "meters" : {
          "estimated_diameter_min" : 127.2198785394,
          "estimated_diameter_max" : 284.4722965033
        },
        "miles" : {
          "estimated_diameter_min" : 0.0790507431,
          "estimated_diameter_max" : 0.1767628354
        },
        "feet" : {
          "estimated_diameter_min" : 417.3880663071,
          "estimated_diameter_max" : 933.3080892598
        }
      },
      "is_potentially_hazardous_asteroid" : true,
      "close_approach_data" : [ {
        "close_approach_date" : "2016-08-15",
        "epoch_date_close_approach" : 1471244400000,
        "relative_velocity" : {
          "kilometers_per_second" : "17.1547583737",
          "kilometers_per_hour" : "61757.1301452606",
          "miles_per_hour" : "38373.4790060926"
        },
        "miss_distance" : {
          "astronomical" : "0.3902784744",
          "lunar" : "151.8183288574",
          "kilometers" : "58384832",
          "miles" : "36278652"
        },
        "orbiting_body" : "Earth"
      } ],
      "orbital_data" : {
        "orbit_id" : "24",
        "orbit_determination_date" : "2017-04-06 08:59:17",
        "orbit_uncertainty" : "1",
        "minimum_orbit_intersection" : ".0277283",
        "jupiter_tisserand_invariant" : "4.478",
        "epoch_osculation" : "2458000.5",
        "eccentricity" : ".5624055543647528",
        "semi_major_axis" : "1.439534285760391",
        "inclination" : "7.159009618489428",
        "ascending_node_longitude" : "54.4435921435135",
        "orbital_period" : "630.8577554560303",
        "perihelion_distance" : ".6299322077502498",
        "perihelion_argument" : "256.0551088745777",
        "aphelion_distance" : "2.249136363770532",
        "perihelion_time" : "2458240.345695412607",
        "mean_anomaly" : "223.1316654162041",
        "mean_motion" : ".570651619777212",
        "equinox" : "J2000"
      }
    }, {
      "links" : {
        "self" : "https://api.nasa.gov/neo/rest/v1/neo/3753832?api_key=t0TVs3DtDT2H8Oy2Zy8m2eVrNsAVKAexjcZXUckd"
      },
      "neo_reference_id" : "3753832",
      "name" : "(2016 LS9)",
      "nasa_jpl_url" : "http://ssd.jpl.nasa.gov/sbdb.cgi?sstr=3753832",
      "absolute_magnitude_h" : 19.1,
      "estimated_diameter" : {
        "kilometers" : {
          "estimated_diameter_min" : 0.4023045798,
          "estimated_diameter_max" : 0.8995803882
        },
        "meters" : {
          "estimated_diameter_min" : 402.3045798343,
          "estimated_diameter_max" : 899.5803881691
        },
        "miles" : {
          "estimated_diameter_min" : 0.2499803991,
          "estimated_diameter_max" : 0.5589731654
        },
        "feet" : {
          "estimated_diameter_min" : 1319.8969577037,
          "estimated_diameter_max" : 2951.3793207207
        }
      },
      "is_potentially_hazardous_asteroid" : false,
      "close_approach_data" : [ {
        "close_approach_date" : "2016-08-15",
        "epoch_date_close_approach" : 1471244400000,
        "relative_velocity" : {
          "kilometers_per_second" : "4.0197472459",
          "kilometers_per_hour" : "14471.0900851083",
          "miles_per_hour" : "8991.7726142719"
        },
        "miss_distance" : {
          "astronomical" : "0.3933908418",
          "lunar" : "153.0290374756",
          "kilometers" : "58850432",
          "miles" : "36567964"
        },
        "orbiting_body" : "Earth"
      } ],
      "orbital_data" : {
        "orbit_id" : "50",
        "orbit_determination_date" : "2017-07-02 06:21:32",
        "orbit_uncertainty" : "0",
        "minimum_orbit_intersection" : ".267689",
        "jupiter_tisserand_invariant" : "3.390",
        "epoch_osculation" : "2458000.5",
        "eccentricity" : ".4644234003316203",
        "semi_major_axis" : "2.356882895997859",
        "inclination" : "7.492649032911002",
        "ascending_node_longitude" : "170.8393071266286",
        "orbital_period" : "1321.616444914095",
        "perihelion_distance" : "1.262291327255097",
        "perihelion_argument" : "133.3063761922181",
        "aphelion_distance" : "3.451474464740622",
        "perihelion_time" : "2457578.583163908330",
        "mean_anomaly" : "114.927490178797",
        "mean_motion" : ".272393704985564",
        "equinox" : "J2000"
      }
    }, {
      "links" : {
        "self" : "https://api.nasa.gov/neo/rest/v1/neo/3756789?api_key=t0TVs3DtDT2H8Oy2Zy8m2eVrNsAVKAexjcZXUckd"
      },
      "neo_reference_id" : "3756789",
      "name" : "(2016 PO)",
      "nasa_jpl_url" : "http://ssd.jpl.nasa.gov/sbdb.cgi?sstr=3756789",
      "absolute_magnitude_h" : 25.1,
      "estimated_diameter" : {
        "kilometers" : {
          "estimated_diameter_min" : 0.0253837029,
          "estimated_diameter_max" : 0.0567596853
        },
        "meters" : {
          "estimated_diameter_min" : 25.3837029364,
          "estimated_diameter_max" : 56.7596852866
        },
        "miles" : {
          "estimated_diameter_min" : 0.0157726969,
          "estimated_diameter_max" : 0.0352688224
        },
        "feet" : {
          "estimated_diameter_min" : 83.279867942,
          "estimated_diameter_max" : 186.2194458756
        }
      },
      "is_potentially_hazardous_asteroid" : false,
      "close_approach_data" : [ {
        "close_approach_date" : "2016-08-15",
        "epoch_date_close_approach" : 1471244400000,
        "relative_velocity" : {
          "kilometers_per_second" : "5.4782330504",
          "kilometers_per_hour" : "19721.6389813247",
          "miles_per_hour" : "12254.2595103681"
        },
        "miss_distance" : {
          "astronomical" : "0.06390382",
          "lunar" : "24.858587265",
          "kilometers" : "9559876",
          "miles" : "5940231.5"
        },
        "orbiting_body" : "Earth"
      } ],
      "orbital_data" : {
        "orbit_id" : "11",
        "orbit_determination_date" : "2017-04-06 08:24:46",
        "orbit_uncertainty" : "7",
        "minimum_orbit_intersection" : ".0607427",
        "jupiter_tisserand_invariant" : "5.260",
        "epoch_osculation" : "2458000.5",
        "eccentricity" : ".1117815655294441",
        "semi_major_axis" : "1.20482374096585",
        "inclination" : "10.24186830543634",
        "ascending_node_longitude" : "141.7142564707935",
        "orbital_period" : "483.0406742574221",
        "perihelion_distance" : "1.070146657013646",
        "perihelion_argument" : "195.0570750946812",
        "aphelion_distance" : "1.339500824918054",
        "perihelion_time" : "2458112.611443658115",
        "mean_anomaly" : "276.4457117840712",
        "mean_motion" : ".7452788536978333",
        "equinox" : "J2000"
      }
    } ]
  }
}